ONEWEB-0156             
1 48052U 21025L   24298.15322474  .00000323  00000+0  85034-3 0  9992
2 48052  87.8885  79.7733 0001560  96.3872 263.7435 13.13472286174681
ONEWEB-0161             
1 48053U 21025M   24298.12626156 -.00000263  00000+0 -75555-3 0  9996
2 48053  87.8888  79.7890 0001537  88.9944 271.1361 13.13468927174611
ONEWEB-0158             
1 48054U 21025N   24298.16434118  .00000374  00000+0  98991-3 0  9996
2 48054  87.8886  79.7685 0001597 101.3030 258.8279 13.13470098174739
ONEWEB-0157             
1 48055U 21025P   24298.11196797 -.00000188  00000+0 -55055-3 0  9999
2 48055  87.8885  79.7924 0001401  79.7416 280.3871 13.13470189174677
ONEWEB-0162             
1 48056U 21025Q   24298.15164707  .00000338  00000+0  88946-3 0  9990
2 48056  87.8881  79.7787 0001527  94.2426 265.8877 13.13467192174622
ONEWEB-0155             
1 48057U 21025R   24297.94373250  .00000117  00000+0  28576-3 0  9990
2 48057  87.8884  79.8324 0001642  88.0824 272.0493 13.13471797174759
ONEWEB-0149             
1 48058U 21025S   24298.11671983 -.00000226  00000+0 -65378-3 0  9999
2 48058  87.8883  79.7933 0001441 102.6444 257.4846 13.13466954174592
ONEWEB-0148             
1 48059U 21025T   24298.15799787  .00000360  00000+0  95152-3 0  9997
2 48059  87.8887  79.8005 0000917  99.9083 260.2149 13.13468980174715
ONEWEB-0160             
1 48060U 21025U   24297.94534563  .00000112  00000+0  27212-3 0  9991
2 48060  87.8889  79.8390 0002346 111.5687 248.5693 13.13467421174638
ONEWEB-0163             
1 48061U 21025V   24297.93106087  .00000366  00000+0  96638-3 0  9996
2 48061  87.8886  79.8307 0001441  86.0345 274.0949 13.13469119174753
ONEWEB-0159             
1 48062U 21025W   24298.14845056  .00000214  00000+0  55036-3 0  9996
2 48062  87.8883  79.7695 0001410  92.1406 267.9884 13.13473749174700
ONEWEB-0164             
1 48063U 21025X   24298.13101541 -.00000105  00000+0 -32144-3 0  9996
2 48063  87.8884  79.7835 0001714  95.3073 264.8252 13.13468236174698
ONEWEB-0167             
1 48064U 21025Y   24298.16038174  .00000357  00000+0  94239-3 0  9991
2 48064  87.8886  79.7911 0001434  89.9819 270.1475 13.13467885174676
ONEWEB-0166             
1 48065U 21025Z   24298.10560910 -.00000011  00000+0 -65370-4 0  9998
2 48065  87.8885  79.7806 0001428 100.5115 259.6175 13.13471869174745
ONEWEB-0151             
1 48066U 21025AA  24297.95484240 -.00000239  00000+0 -68914-3 0  9990
2 48066  87.8886  79.8273 0001710  90.3844 269.7481 13.13466327174661
ONEWEB-0170             
1 48067U 21025AB  24298.11512767 -.00000195  00000+0 -56782-3 0  9997
2 48067  87.8886  79.7981 0002192  96.2203 263.9176 13.13467008174648
ONEWEB-0168             
1 48068U 21025AC  24298.10085203  .00000035  00000+0  60754-4 0  9993
2 48068  87.8889  79.7745 0001581  94.5527 265.5783 13.13466477174653
ONEWEB-0173             
1 48069U 21025AD  24297.94057808  .00000441  00000+0  11736-2 0  9990
2 48069  87.8884  79.8158 0001558  78.6586 281.4718 13.13471161174875
ONEWEB-0171             
1 48070U 21025AE  24298.12942601 -.00000196  00000+0 -57091-3 0  9991
2 48070  87.8887  79.8149 0001683  92.8482 267.2840 13.13468845174718
ONEWEB-0172             
1 48071U 21025AF  24298.10880130 -.00000133  00000+0 -40050-3 0  9996
2 48071  87.8889  79.7852 0001677  89.0477 271.0844 13.13468342175604
ONEWEB-0174             
1 48072U 21025AG  24298.09132013  .00000210  00000+0  54090-3 0  9998
2 48072  87.8889  79.8029 0001472  93.1582 266.9715 13.13467944174929
ONEWEB-0175             
1 48073U 21025AH  24298.11988812 -.00000236  00000+0 -68160-3 0  9991
2 48073  87.8882  79.7780 0001988  92.9237 267.2120 13.13466679174582
ONEWEB-0177             
1 48074U 21025AJ  24298.13259977 -.00000010  00000+0 -63000-4 0  9996
2 48074  87.8884  79.7857 0001371  84.8799 275.2486 13.13469137174776
ONEWEB-0178             
1 48075U 21025AK  24297.92166156  .00002238  00000+0  60942-2 0  9991
2 48075  87.8907  79.8518 0001749  96.3859 263.7469 13.13456362174793
ONEWEB-0108             
1 48076U 21025AL  24298.11038668 -.00000102  00000+0 -31333-3 0  9993
2 48076  87.8882  79.7865 0001620 104.1321 255.9988 13.13468180174756
ONEWEB-0169             
1 48077U 21025AM  24297.91357800  .00000174  00000+0  44268-3 0  9991
2 48077  87.8886  79.8392 0001554 103.1275 257.0028 13.13467379173374
ONEWEB-0176             
1 48210U 21031A   24297.84849483  .00000209  00000+0  53054-3 0  9994
2 48210  87.9019  49.2735 0001699  97.3680 262.7643 13.14501033169310
ONEWEB-0184             
1 48211U 21031B   24297.82153749 -.00000055  00000+0 -18275-3 0  9993
2 48211  87.9014  49.2576 0002454  83.6108 276.5301 13.14501964169285
ONEWEB-0179             
1 48212U 21031C   24297.86752923 -.00004244  00000+0 -11483-1 0  9993
2 48212  87.9019  49.2565 0001413  96.2982 263.8308 13.14526148169336
ONEWEB-0180             
1 48213U 21031D   24298.05305845 -.00000621  00000+0 -17101-2 0  9992
2 48213  87.9021  49.2139 0001766  94.5937 265.5394 13.14498294169243
ONEWEB-0218             
1 48214U 21031E   24297.84691003  .00000262  00000+0  67298-3 0  9995
2 48214  87.9016  49.2566 0002316  74.7086 285.4300 13.14503702169372
ONEWEB-0209             
1 48215U 21031F   24298.06415884  .00000210  00000+0  53185-3 0  9995
2 48215  87.9017  49.2503 0001503  95.8148 264.3153 13.14503980169409
ONEWEB-0198             
1 48216U 21031G   24297.81995148 -.00000059  00000+0 -19369-3 0  9993
2 48216  87.9016  49.3029 0001772  85.7837 274.3495 13.14501303169467
ONEWEB-0189             
1 48217U 21031H   24298.06099192  .00000169  00000+0  42272-3 0  9995
2 48217  87.9016  49.2299 0001700  82.2563 277.8759 13.14501608169251
ONEWEB-0196             
1 48218U 21031J   24298.03879442 -.00000172  00000+0 -49880-3 0  9995
2 48218  87.9016  49.2401 0001710  97.4724 262.6600 13.14502992169248
ONEWEB-0183             
1 48219U 21031K   24297.86118139  .00000609  00000+0  16080-2 0  9993
2 48219  87.9020  49.2907 0001673 105.1614 254.9700 13.14502088169328
ONEWEB-0185             
1 48220U 21031L   24297.81122995  .00000092  00000+0  21259-3 0  9996
2 48220  87.9023  49.2712 0001779  99.1867 260.9464 13.14500362169244
ONEWEB-0187             
1 48221U 21031M   24297.85722100  .00000113  00000+0  27065-3 0  9990
2 48221  87.9020  49.2970 0001544  97.9147 262.2158 13.14501185169266
ONEWEB-0192             
1 48222U 21031N   24298.21798977 -.00003878  00000+0 -10496-1 0  9998
2 48222  87.9009  49.2214 0001790  96.5071 263.6263 13.14522935169234
ONEWEB-0219             
1 48223U 21031P   24298.04513175 -.00000134  00000+0 -39478-3 0  9990
2 48223  87.9015  49.2306 0001531  96.3716 263.7588 13.14501002169414
ONEWEB-0202             
1 48224U 21031Q   24297.87387069 -.00000174  00000+0 -50329-3 0  9994
2 48224  87.9016  49.2825 0001968  76.3294 283.8055 13.14501056169360
ONEWEB-0204             
1 48225U 21031R   24298.06019573  .00000202  00000+0  50962-3 0  9992
2 48225  87.9016  49.2578 0001532 112.4676 247.6616 13.14501776169291
ONEWEB-0205             
1 48226U 21031S   24297.80725024 -.00000145  00000+0 -42461-3 0  9992
2 48226  87.9013  49.2787 0001474  96.8368 263.2930 13.14500476169276
ONEWEB-0206             
1 48227U 21031T   24297.78030135  .00000141  00000+0  34662-3 0  9990
2 48227  87.9017  49.2709 0001407  94.0928 266.0363 13.14499959169211
ONEWEB-0182             
1 48228U 21031U   24297.85166662  .00000204  00000+0  51617-3 0  9993
2 48228  87.9019  49.2894 0001623 104.2287 255.9023 13.14500716169439
ONEWEB-0186             
1 48229U 21031V   24297.86277168 -.00000027  00000+0 -10606-3 0  9997
2 48229  87.9020  49.2500 0001698  97.0343 263.0980 13.14501508169386
ONEWEB-0181             
1 48230U 21031W   24297.84057398  .00000240  00000+0  61344-3 0  9998
2 48230  87.9018  49.3251 0001690  94.6290 265.5033 13.14501525169234
ONEWEB-0188             
1 48231U 21031X   24297.87861100 -.00000182  00000+0 -52532-3 0  9992
2 48231  87.9016  49.3111 0001622  99.1094 261.0219 13.14500008169147
ONEWEB-0220             
1 48232U 21031Y   24298.07051220 -.00005895  00000+0 -15939-1 0  9994
2 48232  87.9007  49.2306 0001211 100.3338 259.7928 13.14535098169433
ONEWEB-0165             
1 48233U 21031Z   24297.87069874 -.00000169  00000+0 -49139-3 0  9996
2 48233  87.9019  49.2952 0001598  93.1887 266.9426 13.14501564169366
ONEWEB-0199             
1 48234U 21031AA  24297.85483746  .00000122  00000+0  29508-3 0  9998
2 48234  87.9018  49.2660 0001856 103.3443 256.7894 13.14500538169266
ONEWEB-0203             
1 48235U 21031AB  24297.84532445  .00000283  00000+0  72882-3 0  9990
2 48235  87.9017  49.2699 0002088  97.1953 262.9414 13.14500529169270
ONEWEB-0197             
1 48236U 21031AC  24297.82074417  .00000011  00000+0 -36582-5 0  9998
2 48236  87.9017  49.2844 0001517 108.6536 251.4758 13.14500956169182
ONEWEB-0194             
1 48237U 21031AD  24297.87544778 -.00000140  00000+0 -41200-3 0  9991
2 48237  87.9018  49.2672 0001972 101.7419 258.3932 13.14500168169367
ONEWEB-0193             
1 48238U 21031AE  24298.04354498 -.00000184  00000+0 -53209-3 0  9990
2 48238  87.9016  49.2417 0001780  96.0795 264.0537 13.14501624169333
ONEWEB-0191             
1 48239U 21031AF  24297.82629488  .00000083  00000+0  18812-3 0  9997
2 48239  87.9017  49.2652 0001760  96.5481 263.5849 13.14501280169160
ONEWEB-0195             
1 48240U 21031AG  24297.87942270 -.00000191  00000+0 -55079-3 0  9999
2 48240  87.9015  49.2533 0001680  86.1833 273.9489 13.14501630169158
ONEWEB-0201             
1 48241U 21031AH  24297.86831979 -.00000115  00000+0 -34385-3 0  9995
2 48241  87.9019  49.2943 0001561  94.5936 265.5372 13.14502473169382
ONEWEB-0207             
1 48242U 21031AJ  24297.84770271  .00000227  00000+0  57876-3 0  9993
2 48242  87.9017  49.2629 0001476 102.6378 257.4917 13.14500822169299
